0 COSMOS 874
1 09591U 76118D   13281.83550551 -.00000038  00000-0 -16247-3 0  9068
2 09591 074.0316 206.3287 0032390 080.2925 335.5874 12.43941142672942
0 COSMOS 874
1 09591U 76118D   13284.18732134 -.00000036  00000-0 -14680-3 0  9076
2 09591 074.0318 203.2391 0032408 076.7104 067.5470 12.43941037673235
0 COSMOS 874
1 09591U 76118D   13286.18962973 -.00000004  00000-0  77573-4 0  9080
2 09591 074.0318 200.6089 0032435 073.6624 034.3329 12.43940806673488
0 COSMOS 874
1 09591U 76118D   13288.20090157  .00000023  00000-0  27626-3 0  9095
2 09591 074.0316 197.9668 0032453 070.6224 041.2358 12.43940586673732
0 COSMOS 874
1 09591U 76118D   13290.45309153  .00000026  00000-0  29334-3 0  9107
2 09591 074.0312 195.0084 0032473 067.2163 047.0213 12.43940725674016
0 COSMOS 874
1 09591U 76118D   13292.46285043  .00000004  00000-0  13461-3 0  9112
2 09591 074.0308 192.3684 0032474 064.1749 047.1509 12.43941092674268
0 COSMOS 874
1 09591U 76118D   13294.47283694 -.00000027  00000-0 -81180-4 0  9127
2 09591 074.0306 189.7279 0032540 061.1516 048.2827 12.43941324674510
